[{"OBJECT_NAME":"STARLINK-3825","OBJECT_ID":"2022-049AD","EPOCH":"2026-03-09T23:06:50.787648","MEAN_MOTION":15.08840024,"ECCENTRICITY":0.00013472,"INCLINATION":53.2173,"RA_OF_ASC_NODE":57.8901,"ARG_OF_PERICENTER":86.1487,"MEAN_ANOMALY":273.966,"EPHEMERIS_TYPE":0,"CLASSIFICATION_TYPE":"U","NORAD_CAT_ID":52478,"ELEMENT_SET_NO":999,"REV_AT_EPOCH":21353,"BSTAR":3.8105066e-5,"MEAN_MOTION_DOT":3.19e-6,"MEAN_MOTION_DDOT":0},{"OBJECT_NAME":"UNKNOWN","OBJECT_ID":"","EPOCH":"2026-03-07T17:21:07.805664","MEAN_MOTION":15.09455608,"ECCENTRICITY":0.0009057,"INCLINATION":82.8696,"RA_OF_ASC_NODE":177.6495,"ARG_OF_PERICENTER":167.3062,"MEAN_ANOMALY":192.8398,"EPHEMERIS_TYPE":0,"CLASSIFICATION_TYPE":"U","NORAD_CAT_ID":87725,"ELEMENT_SET_NO":999,"REV_AT_EPOCH":64668,"BSTAR":0.0060116,"MEAN_MOTION_DOT":0.00097492,"MEAN_MOTION_DDOT":0}]
